NORAD_CAT_ID,OBJECT_NAME,OBJECT_TYPE,EPOCH,MEAN_MOTION,ECCENTRICITY,INCLINATION,RA_OF_ASC_NODE,ARG_OF_PERICENTER,MEAN_ANOMALY,BSTAR,MEAN_MOTION_DOT,MEAN_MOTION_DDOT,TLE_LINE0,TLE_LINE1,TLE_LINE2,SEMIMAJOR_AXIS,PERIOD,APOGEE,PERIGEE,DECAYED
52675.0,STARLINK-3934,PAYLOAD,2023-03-25 22:04:57,15.08803845,0.000124,53.2147,311.3976,111.7558,248.3566,-0.00062117,-0.0001015,0.0,0 STARLINK-3934,1 52675U 22053V   23084.92011149 -.00010150  00000-0 -62117-3 0  9990,2 52675  53.2147 311.3976 0001240 111.7558 248.3566 15.08803845 48169,6917.991,95.44,540.714,538.998,0.0
52675.0,STARLINK-3934,PAYLOAD,2023-03-26 20:20:21,15.08834638,0.0001302,53.2153,307.2362,112.5811,247.5319,0.00053619,8.255e-05,0.0,0 STARLINK-3934,1 52675U 22053V   23085.84747242  .00008255  00000-0  53619-3 0  9990,2 52675  53.2153 307.2362 0001302 112.5811 247.5319 15.08834638 47877,6917.897,95.438,540.662,538.861,0.0
52675.0,STARLINK-3934,PAYLOAD,2023-03-26 21:55:44,15.0883661,0.0001264,53.2153,306.939,120.6365,239.4752,0.00061331,9.485e-05,0.0,0 STARLINK-3934,1 52675U 22053V   23085.91371270  .00009485  00000-0  61331-3 0  9998,2 52675  53.2153 306.9390 0001264 120.6365 239.4752 15.08836610 48318,6917.891,95.438,540.63,538.881,0.0
52675.0,STARLINK-3934,PAYLOAD,2023-03-26 23:31:08,15.08843652,0.0001329,53.2158,306.6403,119.8531,240.2593,0.00081735,0.00012745,0.0,0 STARLINK-3934,1 52675U 22053V   23085.97995629  .00012745  00000-0  81735-3 0  9997,2 52675  53.2158 306.6403 0001329 119.8531 240.2593 15.08843652 48320,6917.869,95.437,540.654,538.815,0.0
52675.0,STARLINK-3934,PAYLOAD,2023-03-27 21:46:31,15.08856687,0.0001244,53.215,302.477,128.2915,231.8189,0.00047651,7.307e-05,0.0,0 STARLINK-3934,1 52675U 22053V   23086.90730927  .00007307  00000-0  47651-3 0  9996,2 52675  53.2150 302.4770 0001244 128.2915 231.8189 15.08856687 48463,6917.829,95.436,540.555,538.834,0.0
52675.0,STARLINK-3934,PAYLOAD,2023-03-28 00:57:17,15.08862494,0.0001155,53.2148,301.882,125.3026,234.8075,0.00065279,0.00010123,0.0,0 STARLINK-3934,1 52675U 22053V   23087.03978628  .00010123  00000-0  65279-3 0  9999,2 52675  53.2148 301.8820 0001155 125.3026 234.8075 15.08862494 48056,6917.812,95.436,540.476,538.878,0.0
52675.0,STARLINK-3934,PAYLOAD,2023-03-28 21:37:17,15.08855045,0.0001099,53.2149,298.0172,112.1373,247.9736,0.00017435,2.489e-05,0.0,0 STARLINK-3934,1 52675U 22053V   23087.90090243  .00002489  00000-0  17435-3 0  9990,2 52675  53.2149 298.0172 0001099 112.1373 247.9736 15.08855045 48187,6917.834,95.437,540.46,538.939,0.0
52675.0,STARLINK-3934,PAYLOAD,2023-03-28 23:12:40,15.0885879,0.0001089,53.2147,297.719,112.3542,247.7566,0.00026693,3.965e-05,0.0,0 STARLINK-3934,1 52675U 22053V   23087.96714079  .00003965  00000-0  26693-3 0  9992,2 52675  53.2147 297.7190 0001089 112.3542 247.7566 15.08858790 48628,6917.823,95.436,540.441,538.935,0.0
52675.0,STARLINK-3934,PAYLOAD,2023-03-29 19:52:42,15.08840581,0.0001102,53.214,293.8485,106.228,253.8833,0.00022039,3.221e-05,0.0,0 STARLINK-3934,1 52675U 22053V   23088.82826581  .00003221  00000-0  22039-3 0  9995,2 52675  53.2140 293.8485 0001102 106.2280 253.8833 15.08840581 48323,6917.879,95.438,540.506,538.981,0.0
52675.0,STARLINK-3934,PAYLOAD,2023-03-30 18:08:06,15.08841831,0.000112,53.2139,289.69,72.7776,287.3339,0.00029221,4.366e-05,0.0,0 STARLINK-3934,1 52675U 22053V   23089.75562892  .00004366  00000-0  29221-3 0  9991,2 52675  53.2139 289.6900 0001120  72.7776 287.3339 15.08841831 48897,6917.875,95.437,540.515,538.965,0.0
52675.0,STARLINK-3934,PAYLOAD,2023-03-30 22:54:15,15.08849124,0.0001225,53.2153,288.7979,81.2941,278.819,0.00042387,6.466e-05,0.0,0 STARLINK-3934,1 52675U 22053V   23089.95434525  .00006466  00000-0  42387-3 0  9995,2 52675  53.2153 288.7979 0001225  81.2941 278.8190 15.08849124 48493,6917.853,95.437,540.565,538.87,0.0
52675.0,STARLINK-3934,PAYLOAD,2023-03-31 19:34:16,15.08848253,0.0001084,53.2145,284.9335,82.1251,277.9864,0.00017809,2.548e-05,0.0,0 STARLINK-3934,1 52675U 22053V   23090.81546412  .00002548  00000-0  17809-3 0  9999,2 52675  53.2145 284.9335 0001084  82.1251 277.9864 15.08848253 48620,6917.855,95.437,540.47,538.97,0.0
52675.0,STARLINK-3934,PAYLOAD,2023-04-01 13:03:31,15.08831643,0.0001124,53.2165,281.6609,74.9679,285.1438,-0.00010392,-1.941e-05,0.0,0 STARLINK-3934,1 52675U 22053V   23091.54411140 -.00001941  00000-0 -10392-3 0  9997,2 52675  53.2165 281.6609 0001124  74.9679 285.1438 15.08831643 48733,6917.906,95.438,540.549,538.993,0.0
52675.0,STARLINK-3934,PAYLOAD,2023-04-01 19:25:03,15.08834353,0.0001066,53.2161,280.4717,69.4219,290.6887,-1.4873e-05,-5.24e-06,0.0,0 STARLINK-3934,1 52675U 22053V   23091.80907193 -.00000524  00000-0 -14873-4 0  9999,2 52675  53.2161 280.4717 0001066  69.4219 290.6887 15.08834353 49203,6917.898,95.438,540.5,539.025,0.0
52675.0,STARLINK-3934,PAYLOAD,2023-04-02 12:54:18,15.08845884,9.4e-05,53.2149,277.1993,72.7459,287.3636,0.00026495,3.932e-05,0.0,0 STARLINK-3934,1 52675U 22053V   23092.53770923  .00003932  00000-0  26495-3 0  9995,2 52675  53.2149 277.1993 0000940  72.7459 287.3636 15.08845884 48880,6917.862,95.437,540.378,539.077,0.0
52675.0,STARLINK-3934,PAYLOAD,2023-04-02 17:40:27,15.08853392,0.0001008,53.2147,276.3077,68.3258,291.7841,0.00067452,0.00010467,0.0,0 STARLINK-3934,1 52675U 22053V   23092.73642855  .00010467  00000-0  67452-3 0  9998,2 52675  53.2147 276.3077 0001008  68.3258 291.7841 15.08853392 49348,6917.839,95.437,540.402,539.007,0.0
52675.0,STARLINK-3934,PAYLOAD,2023-04-03 12:45:05,15.08844474,7.36e-05,53.2146,272.739,63.8587,296.2481,0.0001963,2.838e-05,0.0,0 STARLINK-3934,1 52675U 22053V   23093.53130965  .00002838  00000-0  19630-3 0  9999,2 52675  53.2146 272.7390 0000736  63.8587 296.2481 15.08844474 49034,6917.867,95.437,540.241,539.223,0.0
52675.0,STARLINK-3934,PAYLOAD,2023-04-03 19:06:37,15.0884237,0.0001306,53.2153,271.5506,98.7495,261.3645,9.107e-05,1.162e-05,0.0,0 STARLINK-3934,1 52675U 22053V   23093.79626962  .00001162  00000-0  91070-4 0  9992,2 52675  53.2153 271.5506 0001306  98.7495 261.3645 15.08842370 49507,6917.873,95.437,540.642,538.835,0.0
52675.0,STARLINK-3934,PAYLOAD,2023-04-04 12:35:52,15.08843932,9.28e-05,53.2158,268.2789,88.8472,271.2626,0.00015622,2.2e-05,0.0,0 STARLINK-3934,1 52675U 22053V   23094.52490935  .00002200  00000-0  15622-3 0  9995,2 52675  53.2158 268.2789 0000928  88.8472 271.2626 15.08843932 49180,6917.868,95.437,540.375,539.091,0.0
52675.0,STARLINK-3934,PAYLOAD,2023-04-04 20:32:47,15.08851726,0.0001054,53.2152,266.7915,91.3004,268.8109,0.00036899,5.591e-05,0.0,0 STARLINK-3934,1 52675U 22053V   23094.85610644  .00005591  00000-0  36899-3 0  9997,2 52675  53.2152 266.7915 0001054  91.3004 268.8109 15.08851726 49660,6917.845,95.437,540.439,538.98,0.0
52675.0,STARLINK-3934,PAYLOAD,2023-04-05 10:51:16,15.08845509,0.0001926,53.2161,264.115,108.6542,251.466,0.00018178,2.607e-05,0.0,0 STARLINK-3934,1 52675U 22053V   23095.45226900  .00002607  00000-0  18178-3 0  9997,2 52675  53.2161 264.1150 0001926 108.6542 251.4660 15.08845509 49752,6917.864,95.437,541.061,538.396,0.0
52675.0,STARLINK-3934,PAYLOAD,2023-04-05 18:48:12,15.08813478,0.0001155,53.2163,262.629,78.5286,281.5836,-0.00039482,-6.561e-05,0.0,0 STARLINK-3934,1 52675U 22053V   23095.78348260 -.00006561  00000-0 -39482-3 0  9993,2 52675  53.2163 262.6290 0001155  78.5286 281.5836 15.08813478 49373,6917.961,95.439,540.625,539.027,0.0
52675.0,STARLINK-3934,PAYLOAD,2023-04-06 10:42:04,15.0882251,9.78e-05,53.2175,259.6552,81.3792,278.7311,-6.3595e-05,-1.299e-05,0.0,0 STARLINK-3934,1 52675U 22053V   23096.44588963 -.00001299  00000-0 -63595-4 0  9999,2 52675  53.2175 259.6552 0000978  81.3792 278.7311 15.08822510 49473,6917.934,95.439,540.475,539.122,0.0
52675.0,STARLINK-3934,PAYLOAD,2023-04-06 17:03:37,15.088342,0.0001229,53.2149,258.4653,79.5701,280.543,0.0002366,3.479e-05,0.0,0 STARLINK-3934,1 52675U 22053V   23096.71084873  .00003479  00000-0  23660-3 0  9998,2 52675  53.2149 258.4653 0001229  79.5701 280.5430 15.08834200 49519,6917.898,95.438,540.613,538.913,0.0
52675.0,STARLINK-3934,PAYLOAD,2023-04-07 10:32:51,15.08854589,0.0001354,53.2149,255.1943,70.3634,289.7504,0.00063766,9.879e-05,0.0,0 STARLINK-3934,1 52675U 22053V   23097.43948528  .00009879  00000-0  63766-3 0  9995,2 52675  53.2149 255.1943 0001354  70.3634 289.7504 15.08854589 49625,6917.836,95.437,540.637,538.764,0.0
52675.0,STARLINK-3934,PAYLOAD,2023-04-07 20:05:09,15.08877945,0.0001331,53.2145,253.4105,74.0629,286.0509,0.00098645,0.00015462,0.0,0 STARLINK-3934,1 52675U 22053V   23097.83691646  .00015462  00000-0  98645-3 0  9994,2 52675  53.2145 253.4105 0001331  74.0629 286.0509 15.08877945 49684,6917.764,95.435,540.55,538.709,0.0
52675.0,STARLINK-3934,PAYLOAD,2023-04-08 10:23:37,15.08852944,0.0001257,53.2144,250.7329,89.787,270.3266,6.7423e-05,7.86e-06,0.0,0 STARLINK-3934,1 52675U 22053V   23098.43307663  .00000786  00000-0  67423-4 0  9998,2 52675  53.2144 250.7329 0001257  89.7870 270.3266 15.08852944 49777,6917.841,95.437,540.575,538.836,0.0
52675.0,STARLINK-3934,PAYLOAD,2023-04-08 13:34:24,15.08848682,0.0001295,53.2152,250.1392,81.6162,278.4977,9.8658e-06,-1.31e-06,0.0,0 STARLINK-3934,1 52675U 22053V   23098.56555751 -.00000131  00000-0  98658-5 0  9995,2 52675  53.2152 250.1392 0001295  81.6162 278.4977 15.08848682 50221,6917.854,95.437,540.615,538.823,0.0
52675.0,STARLINK-3934,PAYLOAD,2023-04-09 08:39:02,15.08837962,0.0001637,53.2148,246.5689,92.4512,267.6668,0.00073892,0.00011491,0.0,0 STARLINK-3934,1 52675U 22053V   23099.36044160  .00011491  00000-0  73892-3 0  9992,2 52675  53.2148 246.5689 0001637  92.4512 267.6668 15.08837962 49913,6917.887,95.438,540.884,538.619,0.0
52675.0,STARLINK-3934,PAYLOAD,2023-04-09 16:35:58,15.08840344,0.0001171,53.2153,245.0822,82.0316,278.0809,0.00093551,0.00014632,0.0,0 STARLINK-3934,1 52675U 22053V   23099.69164404  .00014632  00000-0  93551-3 0  9996,2 52675  53.2153 245.0822 0001171  82.0316 278.0809 15.08840344 50397,6917.879,95.438,540.554,538.934,0.0
